{"type": "FeatureCollection", "features": [ {"type": "Feature", "properties": {"norad_id": 39634, "name": "SENTINEL-1A", "group": "resource", "lat": 36.78304917099601, "lon": -1.7108731574638505, "alt_km": 692.5604966931569, "timestamp": "2025-12-25T09:48:51.943289+00:00", "meta": {"OBJECT_NAME": "SENTINEL-1A", "OBJECT_ID": "2014-016A", "EPOCH": "2025-12-25T04:42:26.180640", "MEAN_MOTION": 14.5919982, "ECCENTRICITY": 0.0001255, "INCLINATION": 98.1801, "RA_OF_ASC_NODE": 4.2531, "ARG_OF_PERICENTER": 86.42, "MEAN_ANOMALY": 273.7143, "EPHEMERIS_TYPE": 0, "CLASSIFICATION_TYPE": "U", "NORAD_CAT_ID": 39634, "ELEMENT_SET_NO": 999, "REV_AT_EPOCH": 62464, "BSTAR": 1.9157e-05, "MEAN_MOTION_DOT": 4.5e-07, "MEAN_MOTION_DDOT": 0}, "tle": {"line1": "1 39634U 14016A   25359.19613635  .00000045  00000+0  19157-4 0  9990", "line2": "2 39634  98.1801   4.2531 0001255  86.4200 273.7143 14.59199820624649"}}, "geometry": {"type": "Point", "coordinates": [-1.7108731574638505, 36.78304917099601]}}, {"type": "Feature", "properties": {"norad_id": 39731, "name": "KAZEOSAT 1", "group": "resource", "lat": -47.81726017041548, "lon": 80.34910500521003, "alt_km": 759.2021894726713, "timestamp": "2025-12-25T09:48:51.943299+00:00", "meta": {"OBJECT_NAME": "KAZEOSAT 1", "OBJECT_ID": "2014-024A", "EPOCH": "2025-12-25T05:02:35.607840", "MEAN_MOTION": 14.42069206, "ECCENTRICITY": 0.0001222, "INCLINATION": 98.3417, "RA_OF_ASC_NODE": 70.837, "ARG_OF_PERICENTER": 98.326, "MEAN_ANOMALY": 261.8069, "EPHEMERIS_TYPE": 0, "CLASSIFICATION_TYPE": "U", "NORAD_CAT_ID": 39731, "ELEMENT_SET_NO": 999, "REV_AT_EPOCH": 61348, "BSTAR": 6.0662e-05, "MEAN_MOTION_DOT": 1.56e-06, "MEAN_MOTION_DDOT": 0}, "tle": {"line1": "1 39731U 14024A   25359.21013435  .00000156  00000+0  60662-4 0  9992", "line2": "2 39731  98.3417  70.8370 0001222  98.3260 261.8069 14.42069206613485"}}, "geometry": {"type": "Point", "coordinates": [80.34910500521003, -47.81726017041548]}}, {"type": "Feature", "properties": {"norad_id": 39766, "name": "ALOS-2", "group": "resource", "lat": 78.1474117377496, "lon": -44.357585238399466, "alt_km": 622.7133482547706, "timestamp": "2025-12-25T09:48:51.943308+00:00", "meta": {"OBJECT_NAME": "ALOS-2", "OBJECT_ID": "2014-029A", "EPOCH": "2025-12-25T04:29:59.599968", "MEAN_MOTION": 14.79467887, "ECCENTRICITY": 0.00014, "INCLINATION": 97.9222, "RA_OF_ASC_NODE": 93.8561, "ARG_OF_PERICENTER": 101.1927, "MEAN_ANOMALY": 258.9441, "EPHEMERIS_TYPE": 0, "CLASSIFICATION_TYPE": "U", "NORAD_CAT_ID": 39766, "ELEMENT_SET_NO": 999, "REV_AT_EPOCH": 62585, "BSTAR": 0.00031726, "MEAN_MOTION_DOT": 2.318e-05, "MEAN_MOTION_DDOT": 0}, "tle": {"line1": "1 39766U 14029A   25359.18749537  .00002318  00000+0  31726-3 0  9990", "line2": "2 39766  97.9222  93.8561 0001400 101.1927 258.9441 14.79467887625852"}}, "geometry": {"type": "Point", "coordinates": [-44.357585238399466, 78.1474117377496]}}, {"type": "Feature", "properties": {"norad_id": 40010, "name": "KAZEOSAT 2", "group": "resource", "lat": -82.33119359717828, "lon": -56.96958510327188, "alt_km": 622.0109953992769, "timestamp": "2025-12-25T09:48:51.943318+00:00", "meta": {"OBJECT_NAME": "KAZEOSAT 2", "OBJECT_ID": "2014-033A", "EPOCH": "2025-12-25T03:45:28.456704", "MEAN_MOTION": 14.85188055, "ECCENTRICITY": 0.0008674, "INCLINATION": 97.5495, "RA_OF_ASC_NODE": 202.8301, "ARG_OF_PERICENTER": 163.6895, "MEAN_ANOMALY": 196.4602, "EPHEMERIS_TYPE": 0, "CLASSIFICATION_TYPE": "U", "NORAD_CAT_ID": 40010, "ELEMENT_SET_NO": 999, "REV_AT_EPOCH": 62312, "BSTAR": 7.9471e-05, "MEAN_MOTION_DOT": 6.31e-06, "MEAN_MOTION_DDOT": 0}, "tle": {"line1": "1 40010U 14033A   25359.15657936  .00000631  00000+0  79471-4 0  9993", "line2": "2 40010  97.5495 202.8301 0008674 163.6895 196.4602 14.85188055623122"}}, "geometry": {"type": "Point", "coordinates": [-56.96958510327188, -82.33119359717828]}}, {"type": "Feature", "properties": {"norad_id": 40011, "name": "HODOYOSHI-4", "group": "resource", "lat": 75.8191664959964, "lon": 39.28619255085675, "alt_km": 589.1682011009143, "timestamp": "2025-12-25T09:48:51.943329+00:00", "meta": {"OBJECT_NAME": "HODOYOSHI-4", "OBJECT_ID": "2014-033B", "EPOCH": "2025-12-25T04:30:49.038048", "MEAN_MOTION": 14.87521828, "ECCENTRICITY": 0.0024117, "INCLINATION": 97.541, "RA_OF_ASC_NODE": 187.4582, "ARG_OF_PERICENTER": 159.1872, "MEAN_ANOMALY": 201.0332, "EPHEMERIS_TYPE": 0, "CLASSIFICATION_TYPE": "U", "NORAD_CAT_ID": 40011, "ELEMENT_SET_NO": 999, "REV_AT_EPOCH": 62293, "BSTAR": 6.9863e-05, "MEAN_MOTION_DOT": 5.85e-06, "MEAN_MOTION_DDOT": 0}, "tle": {"line1": "1 40011U 14033B   25359.18806757  .00000585  00000+0  69863-4 0  9996", "line2": "2 40011  97.5410 187.4582 0024117 159.1872 201.0332 14.87521828622936"}}, "geometry": {"type": "Point", "coordinates": [39.28619255085675, 75.8191664959964]}}, {"type": "Feature", "properties": {"norad_id": 40013, "name": "DEIMOS-2", "group": "resource", "lat": 29.7557259189081, "lon": 59.1718117755116, "alt_km": 586.4084100012278, "timestamp": "2025-12-25T09:48:51.943339+00:00", "meta": {"OBJECT_NAME": "DEIMOS-2", "OBJECT_ID": "2014-033D", "EPOCH": "2025-12-25T04:19:12.482976", "MEAN_MOTION": 14.93025754, "ECCENTRICITY": 0.0001331, "INCLINATION": 97.6049, "RA_OF_ASC_NODE": 234.57, "ARG_OF_PERICENTER": 105.2916, "MEAN_ANOMALY": 254.8451, "EPHEMERIS_TYPE": 0, "CLASSIFICATION_TYPE": "U", "NORAD_CAT_ID": 40013, "ELEMENT_SET_NO": 999, "REV_AT_EPOCH": 61175, "BSTAR": 0.00030984, "MEAN_MOTION_DOT": 3.168e-05, "MEAN_MOTION_DDOT": 0}, "tle": {"line1": "1 40013U 14033D   25359.18000559  .00003168  00000+0  30984-3 0  9995", "line2": "2 40013  97.6049 234.5700 0001331 105.2916 254.8451 14.93025754611757"}}, "geometry": {"type": "Point", "coordinates": [59.1718117755116, 29.7557259189081]}}, {"type": "Feature", "properties": {"norad_id": 40015, "name": "HODOYOSHI-3", "group": "resource", "lat": -81.47474060331433, "lon": -78.57981508507761, "alt_km": 610.4190315392825, "timestamp": "2025-12-25T09:48:51.943348+00:00", "meta": {"OBJECT_NAME": "HODOYOSHI-3", "OBJECT_ID": "2014-033F", "EPOCH": "2025-12-25T03:46:04.679904", "MEAN_MOTION": 14.84847912, "ECCENTRICITY": 0.0032528, "INCLINATION": 97.6207, "RA_OF_ASC_NODE": 164.4527, "ARG_OF_PERICENTER": 205.7647, "MEAN_ANOMALY": 154.1949, "EPHEMERIS_TYPE": 0, "CLASSIFICATION_TYPE": "U", "NORAD_CAT_ID": 40015, "ELEMENT_SET_NO": 999, "REV_AT_EPOCH": 62179, "BSTAR": 0.0002011, "MEAN_MOTION_DOT": 1.672e-05, "MEAN_MOTION_DDOT": 0}, "tle": {"line1": "1 40015U 14033F   25359.15699861  .00001672  00000+0  20110-3 0  9992", "line2": "2 40015  97.6207 164.4527 0032528 205.7647 154.1949 14.84847912621799"}}, "geometry": {"type": "Point", "coordinates": [-78.57981508507761, -81.47474060331433]}}, {"type": "Feature", "properties": {"norad_id": 40053, "name": "SPOT 7", "group": "resource", "lat": -27.741400788126786, "lon": 65.48078395378201, "alt_km": 696.9252969068839, "timestamp": "2025-12-25T09:48:51.943359+00:00", "meta": {"OBJECT_NAME": "SPOT 7", "OBJECT_ID": "2014-034A", "EPOCH": "2025-12-25T03:21:59.963904", "MEAN_MOTION": 14.60748718, "ECCENTRICITY": 0.000153, "INCLINATION": 98.0886, "RA_OF_ASC_NODE": 60.929, "ARG_OF_PERICENTER": 82.9011, "MEAN_ANOMALY": 277.2364, "EPHEMERIS_TYPE": 0, "CLASSIFICATION_TYPE": "U", "NORAD_CAT_ID": 40053, "ELEMENT_SET_NO": 999, "REV_AT_EPOCH": 61172, "BSTAR": 0.00010572, "MEAN_MOTION_DOT": 4.7e-06, "MEAN_MOTION_DDOT": 0}, "tle": {"line1": "1 40053U 14034A   25359.14027736  .00000470  00000+0  10572-3 0  9996", "line2": "2 40053  98.0886  60.9290 0001530  82.9011 277.2364 14.60748718611723"}}, "geometry": {"type": "Point", "coordinates": [65.48078395378201, -27.741400788126786]}}, {"type": "Feature", "properties": {"norad_id": 40072, "name": "SKYSAT-B", "group": "resource", "lat": 38.571030830935115, "lon": -62.95171576503187, "alt_km": 602.0927782052104, "timestamp": "2025-12-25T09:48:51.943368+00:00", "meta": {"OBJECT_NAME": "SKYSAT-B", "OBJECT_ID": "2014-037D", "EPOCH": "2025-12-25T03:10:51.972672", "MEAN_MOTION": 14.87370343, "ECCENTRICITY": 0.0006842, "INCLINATION": 98.3628, "RA_OF_ASC_NODE": 303.4941, "ARG_OF_PERICENTER": 115.6801, "MEAN_ANOMALY": 244.5121, "EPHEMERIS_TYPE": 0, "CLASSIFICATION_TYPE": "U", "NORAD_CAT_ID": 40072, "ELEMENT_SET_NO": 999, "REV_AT_EPOCH": 62008, "BSTAR": 0.00020295, "MEAN_MOTION_DOT": 1.774e-05, "MEAN_MOTION_DDOT": 0}, "tle": {"line1": "1 40072U 14037D   25359.13254598  .00001774  00000+0  20295-3 0  9998", "line2": "2 40072  98.3628 303.4941 0006842 115.6801 244.5121 14.87370343620082"}}, "geometry": {"type": "Point", "coordinates": [-62.95171576503187, 38.571030830935115]}}, {"type": "Feature", "properties": {"norad_id": 40115, "name": "WORLDVIEW-3 (WV-3)", "group": "resource", "lat": -3.19002141485717, "lon": -108.9076086672232, "alt_km": 617.2149393153068, "timestamp": "2025-12-25T09:48:51.943378+00:00", "meta": {"OBJECT_NAME": "WORLDVIEW-3 (WV-3)", "OBJECT_ID": "2014-048A", "EPOCH": "2025-12-25T02:31:20.818848", "MEAN_MOTION": 14.84675256, "ECCENTRICITY": 0.000204, "INCLINATION": 97.8764, "RA_OF_ASC_NODE": 71.2343, "ARG_OF_PERICENTER": 129.3268, "MEAN_ANOMALY": 230.8128, "EPHEMERIS_TYPE": 0, "CLASSIFICATION_TYPE": "U", "NORAD_CAT_ID": 40115, "ELEMENT_SET_NO": 999, "REV_AT_EPOCH": 61607, "BSTAR": 0.00013385, "MEAN_MOTION_DOT": 1.079e-05, "MEAN_MOTION_DDOT": 0}, "tle": {"line1": "1 40115U 14048A   25359.10510207  .00001079  00000+0  13385-3 0  9997", "line2": "2 40115  97.8764  71.2343 0002040 129.3268 230.8128 14.84675256616073"}}, "geometry": {"type": "Point", "coordinates": [-108.9076086672232, -3.19002141485717]}}]}